DELTA 2 R/B(1)          
1 20453U 90008B   26038.24001821  .00085042  00000+0  11272-2 0  9991
2 20453  35.6060  14.0358 0095142 334.6671  24.9417 15.51758166921394
COSMOS 2058             
1 20465U 90010A   26038.52011902  .00005198  00000+0  30879-3 0  9998
2 20465  82.4637  77.1489 0012054  81.2516 279.0078 15.11043462937683
SL-14 R/B               
1 20466U 90010B   26038.20079316  .00000639  00000+0  74413-4 0  9995
2 20466  82.5030 296.0283 0020918  43.5743 316.7119 14.83542264923960
SL-14 R/B               
1 20511U 90018B   26038.18917852  .00000538  00000+0  64565-4 0  9992
2 20511  82.5182 251.6048 0016093 187.5334 172.5641 14.82113296918060
HST                     
1 20580U 90037B   26037.81329490  .00008603  00000+0  28897-3 0  9991
2 20580  28.4665 250.5538 0001882 124.2340 235.8434 15.28986369768581
SL-16 R/B               
1 20625U 90046B   26038.29971648  .00000137  00000+0  95213-4 0  9993
2 20625  71.0001   1.7349 0014621 341.8563  18.2035 14.15005591844099
COSMOS 2084             
1 20663U 90055A   26038.43488657  .00003455  00000+0  25211-3 0  9990
2 20663  62.7898  78.7513 0021878 183.7599 176.3341 15.05455558931762
SL-6 R/B(2)             
1 20666U 90055D   26038.31012140  .00003656  00000+0  28059-3 0  9996
2 20666  62.7851 357.1471 0020222 338.2962  21.7278 15.03433149933623
SL-8 R/B                
1 20775U 90078B   26038.12430907  .00018978  00000+0  55994-3 0  9997
2 20775  82.9020 278.7760 0367199 116.4027 247.5372 14.88052929804759
SL-8 R/B                
1 21088U 91006B   26038.48070985  .00000026  00000+0  10937-4 0  9996
2 21088  82.9429 192.5052 0023575 118.6673 305.4619 13.77491991759913
OKEAN-3                 
1 21397U 91039A   26038.35458579  .00004543  00000+0  32110-3 0  9994
2 21397  82.5182   6.2222 0016482  76.3261 283.9800 15.04563620860477
COSMOS 2151             
1 21422U 91042A   26038.46529750  .00002800  00000+0  22283-3 0  9993
2 21422  82.4964 112.8312 0013184 155.4901 204.6952 14.99988729858663
